CCSDS_OMM_VERS = 2.0
CREATION_DATE  = 
ORIGINATOR     = 

OBJECT_NAME    = COSMOS 2550
OBJECT_ID      = 2021-056A
CENTER_NAME    = EARTH
REF_FRAME      = TEME
TIME_SYSTEM    = UTC
MEAN_ELEMENT_THEORY = SGP/SGP4

EPOCH          = 2025-10-29T20:11:33.473760
MEAN_MOTION    = 15.33827771
ECCENTRICITY   = .00083756
INCLINATION    = 67.1404
RA_OF_ASC_NODE = 76.7729
ARG_OF_PERICENTER = 269.9140
MEAN_ANOMALY   = 90.1055

EPHEMERIS_TYPE = 0
CLASSIFICATION_TYPE = U
NORAD_CAT_ID   = 48865
ELEMENT_SET_NO = 999
REV_AT_EPOCH   = 24339
BSTAR          = .26346666E-4
MEAN_MOTION_DOT = .675E-5
MEAN_MOTION_DDOT = 0

CCSDS_OMM_VERS = 2.0
CREATION_DATE  = 
ORIGINATOR     = 

OBJECT_NAME    = CZ-2C R/B
OBJECT_ID      = 2022-058K
CENTER_NAME    = EARTH
REF_FRAME      = TEME
TIME_SYSTEM    = UTC
MEAN_ELEMENT_THEORY = SGP/SGP4

EPOCH          = 2025-10-29T21:11:50.762688
MEAN_MOTION    = 15.45458649
ECCENTRICITY   = .0050729
INCLINATION    = 50.1914
RA_OF_ASC_NODE = 266.6970
ARG_OF_PERICENTER = 15.5735
MEAN_ANOMALY   = 344.6779

EPHEMERIS_TYPE = 0
CLASSIFICATION_TYPE = U
NORAD_CAT_ID   = 52794
ELEMENT_SET_NO = 999
REV_AT_EPOCH   = 18984
BSTAR          = .68402329E-3
MEAN_MOTION_DOT = .34745E-3
MEAN_MOTION_DDOT = 0

CCSDS_OMM_VERS = 2.0
CREATION_DATE  = 
ORIGINATOR     = 

OBJECT_NAME    = GSLV R/B
OBJECT_ID      = 2022-138AN
CENTER_NAME    = EARTH
REF_FRAME      = TEME
TIME_SYSTEM    = UTC
MEAN_ELEMENT_THEORY = SGP/SGP4

EPOCH          = 2025-10-29T12:09:00.254016
MEAN_MOTION    = 14.95760494
ECCENTRICITY   = .00189926
INCLINATION    = 87.3853
RA_OF_ASC_NODE = 210.2744
ARG_OF_PERICENTER = 269.0515
MEAN_ANOMALY   = 90.8540

EPHEMERIS_TYPE = 0
CLASSIFICATION_TYPE = U
NORAD_CAT_ID   = 54149
ELEMENT_SET_NO = 999
REV_AT_EPOCH   = 16431
BSTAR          = .38298091E-3
MEAN_MOTION_DOT = .4309E-4
MEAN_MOTION_DDOT = 0

CCSDS_OMM_VERS = 2.0
CREATION_DATE  = 
ORIGINATOR     = 

OBJECT_NAME    = XRISM
OBJECT_ID      = 2023-137A
CENTER_NAME    = EARTH
REF_FRAME      = TEME
TIME_SYSTEM    = UTC
MEAN_ELEMENT_THEORY = SGP/SGP4

EPOCH          = 2025-10-29T16:16:12.023616
MEAN_MOTION    = 15.09643213
ECCENTRICITY   = .00082091
INCLINATION    = 31.0030
RA_OF_ASC_NODE = 49.8804
ARG_OF_PERICENTER = 160.7469
MEAN_ANOMALY   = 199.3480

EPHEMERIS_TYPE = 0
CLASSIFICATION_TYPE = U
NORAD_CAT_ID   = 57800
ELEMENT_SET_NO = 999
REV_AT_EPOCH   = 11796
BSTAR          = .47776043E-3
MEAN_MOTION_DOT = .7979E-4
MEAN_MOTION_DDOT = 0

CCSDS_OMM_VERS = 2.0
CREATION_DATE  = 
ORIGINATOR     = 

OBJECT_NAME    = ACS3
OBJECT_ID      = 2024-077B
CENTER_NAME    = EARTH
REF_FRAME      = TEME
TIME_SYSTEM    = UTC
MEAN_ELEMENT_THEORY = SGP/SGP4

EPOCH          = 2025-10-29T20:57:26.754048
MEAN_MOTION    = 13.82869807
ECCENTRICITY   = .00311932
INCLINATION    = 97.3406
RA_OF_ASC_NODE = 268.1843
ARG_OF_PERICENTER = 30.4872
MEAN_ANOMALY   = 329.8093

EPHEMERIS_TYPE = 0
CLASSIFICATION_TYPE = U
NORAD_CAT_ID   = 59588
ELEMENT_SET_NO = 999
REV_AT_EPOCH   = 7607
BSTAR          = .82946095E-2
MEAN_MOTION_DOT = .9056E-4
MEAN_MOTION_DDOT = 0

