COSMOS 2550             
1 48865U 21056A   25302.84135965  .00000675  00000+0  26347-4 0  9991
2 48865  67.1404  76.7729 0008375 269.9140  90.1055 15.33827771243392
CZ-2C R/B               
1 52794U 22058K   25302.88322642  .00034745  00000+0  68402-3 0  9996
2 52794  50.1914 266.6970 0050729  15.5735 344.6779 15.45458649189845
GSLV R/B                
1 54149U 22138AN  25302.50625294  .00004309  00000+0  38298-3 0  9992
2 54149  87.3853 210.2744 0018992 269.0515  90.8540 14.95760494164316
XRISM                   
1 57800U 23137A   25302.67791694  .00007979  00000+0  47776-3 0  9992
2 57800  31.0030  49.8804 0008209 160.7469 199.3480 15.09643213117966
ACS3                    
1 59588U 24077B   25302.87322632  .00009056  00000+0  82946-2 0  9990
2 59588  97.3406 268.1843 0031193  30.4872 329.8093 13.82869807 76075
